$$SOE
2460154.500000000, A.D. 2023-Jul-29 00:00:00.0000, 3.399666090463912E+08, 2.354256027777097E+08, -2.108557645180915E+07,
2460161.500000000, A.D. 2023-Aug-05 00:00:00.0000, 3.344904900474396E+08, 2.436944886648101E+08, -2.109041614360198E+07,
2460168.500000000, A.D. 2023-Aug-12 00:00:00.0000, 3.287864789524367E+08, 2.517972869708781E+08, -2.108085880087280E+07,
2460175.500000000, A.D. 2023-Aug-19 00:00:00.0000, 3.228589163116258E+08, 2.597288107418678E+08, -2.105693977538383E+07,
2460182.500000000, A.D. 2023-Aug-26 00:00:00.0000, 3.167122053073098E+08, 2.674839520836297E+08, -2.101869941509472E+07,
2460189.500000000, A.D. 2023-Sep-02 00:00:00.0000, 3.103508123633049E+08, 2.750576799562601E+08, -2.096618302366911E+07,
2460196.500000000, A.D. 2023-Sep-09 00:00:00.0000, 3.037792679478528E+08, 2.824450379951127E+08, -2.089944084246257E+07,
2460203.500000000, A.D. 2023-Sep-16 00:00:00.0000, 2.970021677339699E+08, 2.896411423044082E+08, -2.081852807512836E+07,
2460210.500000000, A.D. 2023-Sep-23 00:00:00.0000, 2.900241745307691E+08, 2.966411795140265E+08, -2.072350496973526E+07,
2460217.500000000, A.D. 2023-Sep-30 00:00:00.0000, 2.828500206432894E+08, 3.034404062911441E+08, -2.061443683010510E+07,
2460224.500000000, A.D. 2023-Oct-07 00:00:00.0000, 2.754845083000112E+08, 3.100341497633178E+08, -2.049139378431992E+07,
2460231.500000000, A.D. 2023-Oct-14 00:00:00.0000, 2.679325091819197E+08, 3.164178055444995E+08, -2.035445067596850E+07,
2460238.500000000, A.D. 2023-Oct-21 00:00:00.0000, 2.601989662792542E+08, 3.225868349708265E+08, -2.020368724336429E+07,
2460245.500000000, A.D. 2023-Oct-28 00:00:00.0000, 2.522888966454748E+08, 3.285367638087794E+08, -2.003918827099003E+07,
2460252.500000000, A.D. 2023-Nov-04 00:00:00.0000, 2.442073937927045E+08, 3.342631816718693E+08, -1.986104366092935E+07,
2460259.500000000, A.D. 2023-Nov-11 00:00:00.0000, 2.359596299042343E+08, 3.397617415543234E+08, -1.966934848941197E+07,
2460266.500000000, A.D. 2023-Nov-18 00:00:00.0000, 2.275508580832376E+08, 3.450281594244428E+08, -1.946420307383831E+07,
2460273.500000000, A.D. 2023-Nov-25 00:00:00.0000, 2.189864147093001E+08, 3.500582139055086E+08, -1.924571305504301E+07,
2460280.500000000, A.D. 2023-Dec-02 00:00:00.0000, 2.102717219279041E+08, 3.548477460380656E+08, -1.901398949813963E+07,
2460287.500000000, A.D. 2023-Dec-09 00:00:00.0000, 2.014122903462923E+08, 3.593926590710037E+08, -1.876914902378471E+07,
2460294.500000000, A.D. 2023-Dec-16 00:00:00.0000, 1.924137222187858E+08, 3.636889183026811E+08, -1.851131399529259E+07,
2460301.500000000, A.D. 2023-Dec-23 00:00:00.0000, 1.832817154671656E+08, 3.677325516703023E+08, -1.824061273785184E+07,
2460308.500000000, A.D. 2023-Dec-30 00:00:00.0000, 1.740220671944182E+08, 3.715196521458674E+08, -1.795717958179821E+07,
2460315.500000000, A.D. 2024-Jan-06 00:00:00.0000, 1.646406749142009E+08, 3.750463795850492E+08, -1.766115476020344E+07,
2460322.500000000, A.D. 2024-Jan-13 00:00:00.0000, 1.551435386638099E+08, 3.783089602361672E+08, -1.735268459963974E+07,
2460329.500000000, A.D. 2024-Jan-20 00:00:00.0000, 1.455367652240778E+08, 3.813036870080515E+08, -1.703192186529221E+07,
2460336.500000000, A.D. 2024-Jan-27 00:00:00.0000, 1.358265724143894E+08, 3.840269211585914E+08, -1.669902602148500E+07,
2460343.500000000, A.D. 2024-Feb-03 00:00:00.0000, 1.260192930287092E+08, 3.864750944664978E+08, -1.635416344598785E+07,
2460350.500000000, A.D. 2024-Feb-10 00:00:00.0000, 1.161213786840214E+08, 3.886447116083915E+08, -1.599750764757767E+07,
2460357.500000000, A.D. 2024-Feb-17 00:00:00.0000, 1.061394037135463E+08, 3.905323527633920E+08, -1.562923949919887E+07,
2460364.500000000, A.D. 2024-Feb-24 00:00:00.0000, 9.608006913359950E+07, 3.921346764750715E+08, -1.524954748905729E+07,
2460371.500000000, A.D. 2024-Mar-02 00:00:00.0000, 8.595020670544533E+07, 3.934484227541498E+08, -1.485862799518760E+07,
2460378.500000000, A.D. 2024-Mar-09 00:00:00.0000, 7.575678322180234E+07, 3.944704163759214E+08, -1.445668560149309E+07,
2460385.500000000, A.D. 2024-Mar-16 00:00:00.0000, 6.550690540285328E+07, 3.951975705880805E+08, -1.404393347551508E+07,
2460392.500000000, A.D. 2024-Mar-23 00:00:00.0000, 5.520782528736545E+07, 3.956268923585951E+08, -1.362059370812303E+07,
2460399.500000000, A.D. 2024-Mar-30 00:00:00.0000, 4.486694386745461E+07, 3.957554891556956E+08, -1.318689741204529E+07,
2460406.500000000, A.D. 2024-Apr-06 00:00:00.0000, 3.449181320736802E+07, 3.955805739075514E+08, -1.274308487723786E+07,
2460413.500000000, A.D. 2024-Apr-13 00:00:00.0000, 2.409014057766154E+07, 3.950994690016884E+08, -1.228940604012099E+07,
2460420.500000000, A.D. 2024-Apr-20 00:00:00.0000, 1.366979363646135E+07, 3.943096120271632E+08, -1.182612096110407E+07,
2460427.500000000, A.D. 2024-Apr-27 00:00:00.0000, 3.238805122043815E+06, 3.932085627196581E+08, -1.135350021694268E+07,
2460434.500000000, A.D. 2024-May-04 00:00:00.0000, -7.194622878598546E+06, 3.917940104284921E+08, -1.087182527292797E+07,
2460441.500000000, A.D. 2024-May-11 00:00:00.0000, -1.762211487283077E+07, 3.900637820281808E+08, -1.038138886453958E+07,
2460448.500000000, A.D. 2024-May-18 00:00:00.0000, -2.803511806376189E+07, 3.880158503216820E+08, -9.882495393692419E+06,
2460455.500000000, A.D. 2024-May-25 00:00:00.0000, -3.842489861693882E+07, 3.856483429544387E+08, -9.375461341681674E+06,
2460462.500000000, A.D. 2024-Jun-01 00:00:00.0000, -4.878253806741834E+07, 3.829595518085364E+08, -8.860615708125293E+06,
2460469.500000000, A.D. 2024-Jun-08 00:00:00.0000, -5.909892965900341E+07, 3.799479428808784E+08, -8.338300499333724E+06,
2460476.500000000, A.D. 2024-Jun-15 00:00:00.0000, -6.936477425766975E+07, 3.766121672171240E+08, -7.808871257014632E+06,
2460483.500000000, A.D. 2024-Jun-22 00:00:00.0000, -7.957057688879444E+07, 3.729510741029873E+08, -7.272697437875211E+06,
2460490.500000000, A.D. 2024-Jun-29 00:00:00.0000, -8.970664606530802E+07, 3.689637247127975E+08, -6.730162596650124E+06,
2460497.500000000, A.D. 2024-Jul-06 00:00:00.0000, -9.976309331657265E+07, 3.646494037543652E+08, -6.181664813877240E+06,
2460504.500000000, A.D. 2024-Jul-13 00:00:00.0000, -1.097298310383862E+08, 3.600076319513277E+08, -5.627617313495919E+06,
2460511.500000000, A.D. 2024-Jul-20 00:00:00.0000, -1.195965707217769E+08, 3.550381805364299E+08, -5.068448992407665E+06,
2460518.500000000, A.D. 2024-Jul-27 00:00:00.0000, -1.293528222905053E+08, 3.497410868168729E+08, -4.504604877981871E+06,
2460525.500000000, A.D. 2024-Aug-03 00:00:00.0000, -1.389878943531025E+08, 3.441166704532313E+08, -3.936546566546351E+06,
2460532.500000000, A.D. 2024-Aug-10 00:00:00.0000, -1.484908952874599E+08, 3.381655504586253E+08, -3.364752655448914E+06,
2460539.500000000, A.D. 2024-Aug-17 00:00:00.0000, -1.578507352007735E+08, 3.318886629440635E+08, -2.789719167739823E+06,
2460546.500000000, A.D. 2024-Aug-24 00:00:00.0000, -1.670561288345278E+08, 3.252872795847356E+08, -2.211959969786093E+06,
2460553.500000000, A.D. 2024-Aug-31 00:00:00.0000, -1.760955994039255E+08, 3.183630267354659E+08, -1.632007192849666E+06,
2460560.500000000, A.D. 2024-Sep-07 00:00:00.0000, -1.849574831186852E+08, 3.111179053032466E+08, -1.050411676689655E+06,
2460567.500000000, A.D. 2024-Sep-14 00:00:00.0000, -1.936299344203914E+08, 3.035543123455661E+08, -4.677433559790105E+05,
2460574.500000000, A.D. 2024-Sep-21 00:00:00.0000, -2.021009340936103E+08, 2.956750647727333E+08, 1.154086361432970E+05,
2460581.500000000, A.D. 2024-Sep-28 00:00:00.0000, -2.103583008678797E+08, 2.874834218809929E+08, 6.984359348284602E+05,
2460588.500000000, A.D. 2024-Oct-05 00:00:00.0000, -2.183897029731215E+08, 2.789831066494491E+08, 1.280710652355522E+06,
2460595.500000000, A.D. 2024-Oct-12 00:00:00.0000, -2.261826701559395E+08, 2.701783286998496E+08, 1.861585114080340E+06,
2460602.500000000, A.D. 2024-Oct-19 00:00:00.0000, -2.337246080575124E+08, 2.610738085595908E+08, 2.440391768154860E+06,
2460609.500000000, A.D. 2024-Oct-26 00:00:00.0000, -2.410028151323910E+08, 2.516748023159206E+08, 3.016443215864450E+06,
2460616.500000000, A.D. 2024-Nov-02 00:00:00.0000, -2.480045019992563E+08, 2.419871263792689E+08, 3.589032337140575E+06,
2460623.500000000, A.D. 2024-Nov-09 00:00:00.0000, -2.547168132756028E+08, 2.320171822211942E+08, 4.157432514896080E+06,
2460630.500000000, A.D. 2024-Nov-16 00:00:00.0000, -2.611268520160071E+08, 2.217719809090105E+08, 4.720897967139900E+06,
2460637.500000000, A.D. 2024-Nov-23 00:00:00.0000, -2.672217068466148E+08, 2.112591671840813E+08, 5.278664190272182E+06,
2460644.500000000, A.D. 2024-Nov-30 00:00:00.0000, -2.729884817178562E+08, 2.004870428114484E+08, 5.829948503159374E+06,
2460651.500000000, A.D. 2024-Dec-07 00:00:00.0000, -2.784143279734252E+08, 1.894645893636055E+08, 6.373950700383484E+06,
2460658.500000000, A.D. 2024-Dec-14 00:00:00.0000, -2.834864795263086E+08, 1.782014913755414E+08, 6.909853990413569E+06,
2460665.500000000, A.D. 2024-Dec-21 00:00:00.0000, -2.881922935457616E+08, 1.667081583171917E+08, 7.436826342185020E+06,
2460672.500000000, A.D. 2024-Dec-28 00:00:00.0000, -2.925192947393017E+08, 1.549957420789071E+08, 7.954021828770958E+06,
2460679.500000000, A.D. 2025-Jan-04 00:00:00.0000, -2.964552206476696E+08, 1.430761519743742E+08, 8.460581936540313E+06,
2460686.500000000, A.D. 2025-Jan-11 00:00:00.0000, -2.999880697606027E+08, 1.309620685169569E+08, 8.955637153674625E+06,
2460693.500000000, A.D. 2025-Jan-18 00:00:00.0000, -3.031061533231736E+08, 1.186669546317975E+08, 9.438308856448695E+06,
2460700.500000000, A.D. 2025-Jan-25 00:00:00.0000, -3.057981504886651E+08, 1.062050633930701E+08, 9.907711440521725E+06,
2460707.500000000, A.D. 2025-Feb-01 00:00:00.0000, -3.080531664713197E+08, 9.359144180155827E+07, 1.036295468421470E+07,
2460714.500000000, A.D. 2025-Feb-08 00:00:00.0000, -3.098607934253472E+08, 8.084193015669963E+07, 1.080314634457061E+07,
2460721.500000000, A.D. 2025-Feb-15 00:00:00.0000, -3.112111737433215E+08, 6.797315653546338E+07, 1.122739498378676E+07,
$$EOE